[
    {
        "id": 27,
        "name": "New Zealand",
        "place_name": "New Zealand",
        "latitude": null,
        "longitude": null
    },
    {
        "id": 28,
        "name": "North Island",
        "place_name": "North Island, New Zealand",
        "latitude": null,
        "longitude": null
    },
    {
        "id": 30,
        "name": "Auckland",
        "place_name": "Auckland, , New Zealand",
        "latitude": null,
        "longitude": null
    },
    {
        "id": 80,
        "name": "Pakuranga",
        "place_name": "Pakuranga, Auckland, , New Zealand",
        "latitude": null,
        "longitude": null
    },
    {
        "id": 82,
        "name": "Christmas Day 2006",
        "place_name": "Pakuranga, Auckland, , New Zealand",
        "latitude": null,
        "longitude": null
    },
    {
        "id": 83,
        "name": "BB Zoe, Ryan Jan07 ",
        "place_name": "Pakuranga, Auckland, , New Zealand",
        "latitude": null,
        "longitude": null
    },
    {
        "id": 84,
        "name": "BBQ at Uncle Peter Hm 21Jan07",
        "place_name": "Pakuranga, Auckland, , New Zealand",
        "latitude": null,
        "longitude": null
    },
    {
        "id": 362,
        "name": "Christopher & Samantha",
        "place_name": "Pakuranga, Auckland, , New Zealand",
        "latitude": null,
        "longitude": null
    },
    {
        "id": 91,
        "name": "Auckland APT",
        "place_name": "Auckland Airport, Auckland, , New Zealand",
        "latitude": null,
        "longitude": null
    },
    {
        "id": 239,
        "name": "273 St Johns Road",
        "place_name": "273 St Johns Road, Auckland, , New Zealand",
        "latitude": null,
        "longitude": null
    },
    {
        "id": 305,
        "name": "47 Cascades Road",
        "place_name": "47 Cascades Road, Auckland, , New Zealand",
        "latitude": null,
        "longitude": null
    },
    {
        "id": 363,
        "name": "Mission Bay",
        "place_name": "Mission Bay, Auckland, , New Zealand",
        "latitude": null,
        "longitude": null
    },
    {
        "id": 408,
        "name": "Auckland Botanical Garden",
        "place_name": "Auckland Botanical Garden, Auckland, , New Zealand",
        "latitude": null,
        "longitude": null
    },
    {
        "id": 409,
        "name": "Mt Smart Rd",
        "place_name": "Mt Smart Rd, Auckland, , New Zealand",
        "latitude": null,
        "longitude": null
    },
    {
        "id": 410,
        "name": "AKL Santa Parade",
        "place_name": "Auckland, , New Zealand",
        "latitude": null,
        "longitude": null
    },
    {
        "id": 411,
        "name": "Waipuna -mum NOV12",
        "place_name": "Waipuna, Auckland, , New Zealand",
        "latitude": null,
        "longitude": null
    },
    {
        "id": 412,
        "name": "Cornwall Park",
        "place_name": "Cornwall Park, Auckland, , New Zealand",
        "latitude": null,
        "longitude": null
    },
    {
        "id": 31,
        "name": "Wellington",
        "place_name": "Wellington, , New Zealand",
        "latitude": null,
        "longitude": null
    },
    {
        "id": 70,
        "name": "Bay of Island",
        "place_name": "Bay of Island, , New Zealand",
        "latitude": null,
        "longitude": null
    },
    {
        "id": 192,
        "name": "Tirimatangi",
        "place_name": "Tiritiri Matangi, , New Zealand",
        "latitude": null,
        "longitude": null
    },
    {
        "id": 315,
        "name": "Orewa Beach",
        "place_name": "Orewa Beach, , New Zealand",
        "latitude": null,
        "longitude": null
    },
    {
        "id": 420,
        "name": "Coramandel",
        "place_name": "Coromandel, , New Zealand",
        "latitude": null,
        "longitude": null
    },
    {
        "id": 29,
        "name": "South Island",
        "place_name": "South Island, New Zealand",
        "latitude": null,
        "longitude": null
    },
    {
        "id": 32,
        "name": "Chirstchurch",
        "place_name": "Chirstchurch, , New Zealand",
        "latitude": null,
        "longitude": null
    },
    {
        "id": 33,
        "name": "Rangiora",
        "place_name": "Rangiora, , New Zealand",
        "latitude": null,
        "longitude": null
    },
    {
        "id": 34,
        "name": "Hanmer Springs",
        "place_name": "Hanmer Springs, , New Zealand",
        "latitude": null,
        "longitude": null
    },
    {
        "id": 92,
        "name": "Christchurch APT",
        "place_name": "Christchurch Airport, , New Zealand",
        "latitude": null,
        "longitude": null
    },
    {
        "id": 100,
        "name": "Akoroa",
        "place_name": "Akoroa, , New Zealand",
        "latitude": null,
        "longitude": null
    },
    {
        "id": 174,
        "name": "Lavender Farm",
        "place_name": "Lavender Farm, , New Zealand",
        "latitude": null,
        "longitude": null
    },
    {
        "id": 238,
        "name": "CHC Botanical Garden",
        "place_name": "Christchurch Botanical Garden, , New Zealand",
        "latitude": null,
        "longitude": null
    },
    {
        "id": 242,
        "name": "New Brighton near CHC",
        "place_name": "New Brighton, Christchurch , New Zealand",
        "latitude": null,
        "longitude": null
    },
    {
        "id": 414,
        "name": "Greymouth",
        "place_name": "Greymouth, , New Zealand",
        "latitude": null,
        "longitude": null
    },
    {
        "id": 415,
        "name": "Main South Rd Paroa",
        "place_name": "Main South Rd Paroa, , New Zealand",
        "latitude": null,
        "longitude": null
    },
    {
        "id": 428,
        "name": "Hokitika",
        "place_name": "Hokitika, , New Zealand",
        "latitude": null,
        "longitude": null
    },
    {
        "id": 429,
        "name": "Reefton",
        "place_name": "Reefton, , New Zealand",
        "latitude": null,
        "longitude": null
    },
    {
        "id": 35,
        "name": "Singapore",
        "place_name": "Singapore",
        "latitude": null,
        "longitude": null
    },
    {
        "id": 40,
        "name": "Regent Park Condominium",
        "place_name": "Singapore",
        "latitude": null,
        "longitude": null
    },
    {
        "id": 41,
        "name": "Vista Park Condominium",
        "place_name": "Singapore",
        "latitude": null,
        "longitude": null
    },
    {
        "id": 53,
        "name": "Changi APT",
        "place_name": "Changi Airport, Singapore",
        "latitude": null,
        "longitude": null
    },
    {
        "id": 95,
        "name": "Raffles Place",
        "place_name": "Raffles Place, Singapore",
        "latitude": null,
        "longitude": null
    },
    {
        "id": 102,
        "name": "ACM",
        "place_name": "Asian Civilisations Museum, Raffles Place, Singapore",
        "latitude": null,
        "longitude": null
    },
    {
        "id": 103,
        "name": "Fullerton Hotel",
        "place_name": "Fullerton Hotel, Raffles Place, Singapore",
        "latitude": null,
        "longitude": null
    },
    {
        "id": 104,
        "name": "Singapore River",
        "place_name": "Singapore River, Raffles Place, Singapore",
        "latitude": null,
        "longitude": null
    },
    {
        "id": 144,
        "name": "HarbourFront & Cruise Centre",
        "place_name": "Cruise Centre, Singapore",
        "latitude": null,
        "longitude": null
    },
    {
        "id": 158,
        "name": "Har Paw Villa",
        "place_name": "Haw Par Villa, Singapore",
        "latitude": null,
        "longitude": null
    },
    {
        "id": 159,
        "name": "Sentosa Island",
        "place_name": "Sentosa Island, Singapore",
        "latitude": null,
        "longitude": null
    },
    {
        "id": 161,
        "name": "Night Safari",
        "place_name": "Night Safari, Singapore",
        "latitude": null,
        "longitude": null
    },
    {
        "id": 162,
        "name": "Singapore Duck Tour",
        "place_name": "Singapore Duck Tour, Singapore",
        "latitude": null,
        "longitude": null
    },
    {
        "id": 163,
        "name": "Changi Exhibition Centre",
        "place_name": "Changi Exhibition Centre, Singapore",
        "latitude": null,
        "longitude": null
    },
    {
        "id": 173,
        "name": "Pulau Ubin - SIN",
        "place_name": "Pulau Ubin, Singapore",
        "latitude": null,
        "longitude": null
    },
    {
        "id": 178,
        "name": "Discovering The Southern Ridges",
        "place_name": "Singapore",
        "latitude": null,
        "longitude": null
    },
    {
        "id": 185,
        "name": "Orchard Road",
        "place_name": "Orchard Road, Singapore",
        "latitude": null,
        "longitude": null
    },
    {
        "id": 217,
        "name": "Pasir Ris Chalets",
        "place_name": "Pasir Ris, Singapore",
        "latitude": null,
        "longitude": null
    },
    {
        "id": 220,
        "name": "Pasir Panjang Village",
        "place_name": "Pasir Panjang Village, Singapore",
        "latitude": null,
        "longitude": null
    },
    {
        "id": 222,
        "name": "Esplanade Theatre",
        "place_name": "Esplanade Theatre, Singapore",
        "latitude": null,
        "longitude": null
    },
    {
        "id": 223,
        "name": "Singapore Flyer",
        "place_name": "Singapore Flyer, Singapore",
        "latitude": null,
        "longitude": null
    },
    {
        "id": 229,
        "name": "South Buona Vista",
        "place_name": "South Buona Vista, Singapore",
        "latitude": null,
        "longitude": null
    },
    {
        "id": 257,
        "name": "Pasir Panjang Food Stall",
        "place_name": "Pasir Panjang, Singapore",
        "latitude": null,
        "longitude": null
    },
    {
        "id": 258,
        "name": "Botak Jones",
        "place_name": "Botak Jones, Singapore",
        "latitude": null,
        "longitude": null
    },
    {
        "id": 259,
        "name": "Central",
        "place_name": "Central, Singapore",
        "latitude": null,
        "longitude": null
    },
    {
        "id": 260,
        "name": "Pasir Panjang",
        "place_name": "Pasir Panjang, Singapore",
        "latitude": null,
        "longitude": null
    },
    {
        "id": 262,
        "name": "NUS",
        "place_name": "National University of Singapore, Singapore",
        "latitude": null,
        "longitude": null
    },
    {
        "id": 263,
        "name": "VIVO CITY",
        "place_name": "VIVO CITY, Singapore",
        "latitude": null,
        "longitude": null
    },
    {
        "id": 264,
        "name": "Jurong Bird Park",
        "place_name": "Jurong Bird Park, Singapore",
        "latitude": null,
        "longitude": null
    },
    {
        "id": 319,
        "name": "ACM",
        "place_name": "Asian Civilisations Museum, Singapore",
        "latitude": null,
        "longitude": null
    },
    {
        "id": 407,
        "name": "2012 singapore apt",
        "place_name": "Singapore",
        "latitude": null,
        "longitude": null
    },
    {
        "id": 36,
        "name": "Malaysia",
        "place_name": "Malaysia",
        "latitude": null,
        "longitude": null
    },
    {
        "id": 37,
        "name": "Langkawi",
        "place_name": "Langkawi, Malaysia",
        "latitude": null,
        "longitude": null
    },
    {
        "id": 38,
        "name": "Kuala Lumpur",
        "place_name": "Kuala Lumpur, Malaysia",
        "latitude": null,
        "longitude": null
    },
    {
        "id": 39,
        "name": "Penang",
        "place_name": "Penang, Malaysia",
        "latitude": null,
        "longitude": null
    },
    {
        "id": 99,
        "name": "Malacca",
        "place_name": "Malacca, Malaysia",
        "latitude": null,
        "longitude": null
    },
    {
        "id": 145,
        "name": "Port Klang",
        "place_name": "Port Klang, Malaysia",
        "latitude": null,
        "longitude": null
    },
    {
        "id": 152,
        "name": "Tioman Island",
        "place_name": "Tioman Island, Malaysia",
        "latitude": null,
        "longitude": null
    },
    {
        "id": 146,
        "name": "Thailand",
        "place_name": "Thailand",
        "latitude": null,
        "longitude": null
    },
    {
        "id": 147,
        "name": "Phuket",
        "place_name": "Phuket, Thailand",
        "latitude": null,
        "longitude": null
    },
    {
        "id": 207,
        "name": "Bangkok APT",
        "place_name": "Bangkok Airport, Thailand",
        "latitude": null,
        "longitude": null
    },
    {
        "id": 153,
        "name": "Cambodia",
        "place_name": "Cambodia",
        "latitude": null,
        "longitude": null
    },
    {
        "id": 154,
        "name": "Siem Reap",
        "place_name": "Siem Reap, Cambodia",
        "latitude": null,
        "longitude": null
    },
    {
        "id": 156,
        "name": "Indonesia",
        "place_name": "Indonesia",
        "latitude": null,
        "longitude": null
    },
    {
        "id": 157,
        "name": "Bintan Island",
        "place_name": "Bintan Island, Indonesia",
        "latitude": null,
        "longitude": null
    },
    {
        "id": 191,
        "name": "Australia APT",
        "place_name": "Australia Airport",
        "latitude": null,
        "longitude": null
    },
    {
        "id": 208,
        "name": "Japan",
        "place_name": "Japan",
        "latitude": null,
        "longitude": null
    },
    {
        "id": 210,
        "name": "Kyoto Station",
        "place_name": "Kyoto Station, Japan",
        "latitude": null,
        "longitude": null
    },
    {
        "id": 211,
        "name": "Osaka APT",
        "place_name": "Osaka Airport, Japan",
        "latitude": null,
        "longitude": null
    },
    {
        "id": 215,
        "name": "Shin-Osaka Station",
        "place_name": "Shin-Osaka Station, Japan",
        "latitude": null,
        "longitude": null
    },
    {
        "id": 216,
        "name": "Tokyo",
        "place_name": "Tokyo, Japan",
        "latitude": null,
        "longitude": null
    },
    {
        "id": 209,
        "name": "Airport",
        "place_name": "Airport, Tokyo, Japan",
        "latitude": null,
        "longitude": null
    },
    {
        "id": 214,
        "name": "Train Station",
        "place_name": "Train Station, Tokyo, Japan",
        "latitude": null,
        "longitude": null
    },
    {
        "id": 266,
        "name": "Hibiya Park",
        "place_name": "Hibiya Park, Tokyo, Japan",
        "latitude": null,
        "longitude": null
    },
    {
        "id": 270,
        "name": "Ginza shopping street",
        "place_name": "Ginza shopping street, Tokyo, Japan",
        "latitude": null,
        "longitude": null
    },
    {
        "id": 271,
        "name": "Akihabara",
        "place_name": "Akihabara, Tokyo, Japan",
        "latitude": null,
        "longitude": null
    },
    {
        "id": 273,
        "name": "Sensoji Temple @ Asakusa",
        "place_name": "Sensoji Temple @ Asakusa, Tokyo, Japan",
        "latitude": null,
        "longitude": null
    },
    {
        "id": 274,
        "name": "Nakamise Shopping Street & Shin-Nakamise Shopping Street",
        "place_name": "Nakamise Shopping Street & Shin-Nakamise Shopping Street, Tokyo, Japan",
        "latitude": null,
        "longitude": null
    },
    {
        "id": 275,
        "name": "Asakusa",
        "place_name": "Asakusa, Tokyo, Japan",
        "latitude": null,
        "longitude": null
    },
    {
        "id": 276,
        "name": "Meiji Shrine",
        "place_name": "Meiji Shrine, Tokyo, Japan",
        "latitude": null,
        "longitude": null
    },
    {
        "id": 278,
        "name": "Near Shibuya",
        "place_name": "Shibuya, Tokyo, Japan",
        "latitude": null,
        "longitude": null
    },
    {
        "id": 279,
        "name": "Shibuya & Shibuya Crossing",
        "place_name": "Shibuya & Shibuya Crossing, Tokyo, Japan",
        "latitude": null,
        "longitude": null
    },
    {
        "id": 300,
        "name": "near Takeshita Street @ Harajuku Station",
        "place_name": "Harajuku Station, Tokyo, Japan",
        "latitude": null,
        "longitude": null
    },
    {
        "id": 326,
        "name": "Kyoto",
        "place_name": "Kyoto, Japan",
        "latitude": null,
        "longitude": null
    },
    {
        "id": 320,
        "name": "Bamboo Forest @Arashiyama",
        "place_name": "Bamboo Forest, Kyoto, Japan",
        "latitude": null,
        "longitude": null
    },
    {
        "id": 324,
        "name": "Daitokuji Temple",
        "place_name": "Daitokuji Temple, Kyoto, Japan",
        "latitude": null,
        "longitude": null
    },
    {
        "id": 377,
        "name": "Osaka",
        "place_name": "Osaka, Japan",
        "latitude": null,
        "longitude": null
    },
    {
        "id": 251,
        "name": "Australia",
        "place_name": "Australia",
        "latitude": null,
        "longitude": null
    },
    {
        "id": 252,
        "name": "Sydney",
        "place_name": "Sydney, Australia",
        "latitude": null,
        "longitude": null
    },
    {
        "id": 253,
        "name": "Cairns",
        "place_name": "Cairns, Australia",
        "latitude": null,
        "longitude": null
    },
    {
        "id": 254,
        "name": "Port Douglas",
        "place_name": "Port Douglas, Australia",
        "latitude": null,
        "longitude": null
    },
    {
        "id": 255,
        "name": "Sunshine Coast",
        "place_name": "Sunshine Coast, Australia",
        "latitude": null,
        "longitude": null
    },
    {
        "id": 309,
        "name": "United States of America",
        "place_name": "United States of America",
        "latitude": null,
        "longitude": null
    },
    {
        "id": 310,
        "name": "San Francisco",
        "place_name": "San Francisco, United States of America",
        "latitude": null,
        "longitude": null
    },
    {
        "id": 311,
        "name": "Seattle",
        "place_name": "Seattle, United States of America",
        "latitude": null,
        "longitude": null
    },
    {
        "id": 312,
        "name": "Space Needle",
        "place_name": "Space Needle, Seattle, United States of America",
        "latitude": null,
        "longitude": null
    },
    {
        "id": 372,
        "name": "New York City",
        "place_name": "New York City, United States of America",
        "latitude": null,
        "longitude": null
    }
]